CCSDS_OMM_VERS = 2.0
CREATION_DATE  = 
ORIGINATOR     = 

OBJECT_NAME    = COSMOS 2242
OBJECT_ID      = 1993-024A
CENTER_NAME    = EARTH
REF_FRAME      = TEME
TIME_SYSTEM    = UTC
MEAN_ELEMENT_THEORY = SGP/SGP4

EPOCH          = 2026-03-10T15:19:56.625312
MEAN_MOTION    = 14.96553410
ECCENTRICITY   = .0015123
INCLINATION    = 82.5156
RA_OF_ASC_NODE = 265.8084
ARG_OF_PERICENTER = 305.4167
MEAN_ANOMALY   = 54.5642

EPHEMERIS_TYPE = 0
CLASSIFICATION_TYPE = U
NORAD_CAT_ID   = 22626
ELEMENT_SET_NO = 999
REV_AT_EPOCH   = 78053
BSTAR          = .18948E-3
MEAN_MOTION_DOT = .2185E-4
MEAN_MOTION_DDOT = 0

CCSDS_OMM_VERS = 2.0
CREATION_DATE  = 
ORIGINATOR     = 

OBJECT_NAME    = SL-16 R/B
OBJECT_ID      = 1993-059B
CENTER_NAME    = EARTH
REF_FRAME      = TEME
TIME_SYSTEM    = UTC
MEAN_ELEMENT_THEORY = SGP/SGP4

EPOCH          = 2026-03-10T19:37:50.587104
MEAN_MOTION    = 14.17231475
ECCENTRICITY   = .0018483
INCLINATION    = 70.9928
RA_OF_ASC_NODE = 8.7465
ARG_OF_PERICENTER = 214.9406
MEAN_ANOMALY   = 145.0506

EPHEMERIS_TYPE = 0
CLASSIFICATION_TYPE = U
NORAD_CAT_ID   = 22803
ELEMENT_SET_NO = 999
REV_AT_EPOCH   = 67969
BSTAR          = -.41224E-4
MEAN_MOTION_DOT = -.131E-5
MEAN_MOTION_DDOT = 0

CCSDS_OMM_VERS = 2.0
CREATION_DATE  = 
ORIGINATOR     = 

OBJECT_NAME    = ARIANE 40 R/B
OBJECT_ID      = 1993-061H
CENTER_NAME    = EARTH
REF_FRAME      = TEME
TIME_SYSTEM    = UTC
MEAN_ELEMENT_THEORY = SGP/SGP4

EPOCH          = 2026-03-10T19:34:50.445696
MEAN_MOTION    = 14.32861570
ECCENTRICITY   = .000958
INCLINATION    = 98.4914
RA_OF_ASC_NODE = 138.6813
ARG_OF_PERICENTER = 281.3577
MEAN_ANOMALY   = 78.6531

EPHEMERIS_TYPE = 0
CLASSIFICATION_TYPE = U
NORAD_CAT_ID   = 22830
ELEMENT_SET_NO = 999
REV_AT_EPOCH   = 69426
BSTAR          = .98313E-4
MEAN_MOTION_DOT = .225E-5
MEAN_MOTION_DDOT = 0

CCSDS_OMM_VERS = 2.0
CREATION_DATE  = 
ORIGINATOR     = 

OBJECT_NAME    = COSMOS 2278
OBJECT_ID      = 1994-023A
CENTER_NAME    = EARTH
REF_FRAME      = TEME
TIME_SYSTEM    = UTC
MEAN_ELEMENT_THEORY = SGP/SGP4

EPOCH          = 2026-03-10T17:30:10.598112
MEAN_MOTION    = 14.14379218
ECCENTRICITY   = .0008119
INCLINATION    = 71.0553
RA_OF_ASC_NODE = 172.9226
ARG_OF_PERICENTER = 11.0961
MEAN_ANOMALY   = 349.0339

EPHEMERIS_TYPE = 0
CLASSIFICATION_TYPE = U
NORAD_CAT_ID   = 23087
ELEMENT_SET_NO = 999
REV_AT_EPOCH   = 64495
BSTAR          = .63043E-4
MEAN_MOTION_DOT = .74E-6
MEAN_MOTION_DDOT = 0

CCSDS_OMM_VERS = 2.0
CREATION_DATE  = 
ORIGINATOR     = 

OBJECT_NAME    = SL-16 R/B
OBJECT_ID      = 1994-023B
CENTER_NAME    = EARTH
REF_FRAME      = TEME
TIME_SYSTEM    = UTC
MEAN_ELEMENT_THEORY = SGP/SGP4

EPOCH          = 2026-03-10T10:07:25.697280
MEAN_MOTION    = 14.15011602
ECCENTRICITY   = .0005711
INCLINATION    = 70.9986
RA_OF_ASC_NODE = 69.3494
ARG_OF_PERICENTER = 284.9255
MEAN_ANOMALY   = 75.1235

EPHEMERIS_TYPE = 0
CLASSIFICATION_TYPE = U
NORAD_CAT_ID   = 23088
ELEMENT_SET_NO = 999
REV_AT_EPOCH   = 64619
BSTAR          = -.98609E-4
MEAN_MOTION_DOT = -.239E-5
MEAN_MOTION_DDOT = 0

CCSDS_OMM_VERS = 2.0
CREATION_DATE  = 
ORIGINATOR     = 

OBJECT_NAME    = SL-16 R/B
OBJECT_ID      = 1994-074B
CENTER_NAME    = EARTH
REF_FRAME      = TEME
TIME_SYSTEM    = UTC
MEAN_ELEMENT_THEORY = SGP/SGP4

EPOCH          = 2026-03-10T14:46:10.824384
MEAN_MOTION    = 14.79409195
ECCENTRICITY   = .000587
INCLINATION    = 97.7109
RA_OF_ASC_NODE = 100.3955
ARG_OF_PERICENTER = 206.8763
MEAN_ANOMALY   = 269.4051

EPHEMERIS_TYPE = 0
CLASSIFICATION_TYPE = U
NORAD_CAT_ID   = 23343
ELEMENT_SET_NO = 999
REV_AT_EPOCH   = 68738
BSTAR          = .84839E-4
MEAN_MOTION_DOT = .584E-5
MEAN_MOTION_DDOT = 0

CCSDS_OMM_VERS = 2.0
CREATION_DATE  = 
ORIGINATOR     = 

OBJECT_NAME    = SL-16 R/B
OBJECT_ID      = 1994-077B
CENTER_NAME    = EARTH
REF_FRAME      = TEME
TIME_SYSTEM    = UTC
MEAN_ELEMENT_THEORY = SGP/SGP4

EPOCH          = 2026-03-10T19:51:06.374304
MEAN_MOTION    = 14.15561339
ECCENTRICITY   = .0003035
INCLINATION    = 70.9853
RA_OF_ASC_NODE = 350.0963
ARG_OF_PERICENTER = 210.5769
MEAN_ANOMALY   = 149.5177

EPHEMERIS_TYPE = 0
CLASSIFICATION_TYPE = U
NORAD_CAT_ID   = 23405
ELEMENT_SET_NO = 999
REV_AT_EPOCH   = 61639
BSTAR          = .37364E-4
MEAN_MOTION_DOT = .25E-6
MEAN_MOTION_DDOT = 0

CCSDS_OMM_VERS = 2.0
CREATION_DATE  = 
ORIGINATOR     = 

OBJECT_NAME    = ARIANE 40+ R/B
OBJECT_ID      = 1995-021B
CENTER_NAME    = EARTH
REF_FRAME      = TEME
TIME_SYSTEM    = UTC
MEAN_ELEMENT_THEORY = SGP/SGP4

EPOCH          = 2026-03-10T19:11:02.650272
MEAN_MOTION    = 14.39773382
ECCENTRICITY   = .0007671
INCLINATION    = 98.4494
RA_OF_ASC_NODE = 141.2667
ARG_OF_PERICENTER = 133.4864
MEAN_ANOMALY   = 337.2868

EPHEMERIS_TYPE = 0
CLASSIFICATION_TYPE = U
NORAD_CAT_ID   = 23561
ELEMENT_SET_NO = 999
REV_AT_EPOCH   = 61940
BSTAR          = .12668E-3
MEAN_MOTION_DOT = .354E-5
MEAN_MOTION_DDOT = 0

CCSDS_OMM_VERS = 2.0
CREATION_DATE  = 
ORIGINATOR     = 

OBJECT_NAME    = SL-16 R/B
OBJECT_ID      = 1995-058B
CENTER_NAME    = EARTH
REF_FRAME      = TEME
TIME_SYSTEM    = UTC
MEAN_ELEMENT_THEORY = SGP/SGP4

EPOCH          = 2026-03-10T16:37:44.444064
MEAN_MOTION    = 14.15496011
ECCENTRICITY   = .0010774
INCLINATION    = 71.0222
RA_OF_ASC_NODE = 178.1490
ARG_OF_PERICENTER = 123.8863
MEAN_ANOMALY   = 236.3286

EPHEMERIS_TYPE = 0
CLASSIFICATION_TYPE = U
NORAD_CAT_ID   = 23705
ELEMENT_SET_NO = 999
REV_AT_EPOCH   = 56799
BSTAR          = .19609E-3
MEAN_MOTION_DOT = .336E-5
MEAN_MOTION_DDOT = 0

CCSDS_OMM_VERS = 2.0
CREATION_DATE  = 
ORIGINATOR     = 

OBJECT_NAME    = SL-16 R/B
OBJECT_ID      = 1996-051B
CENTER_NAME    = EARTH
REF_FRAME      = TEME
TIME_SYSTEM    = UTC
MEAN_ELEMENT_THEORY = SGP/SGP4

EPOCH          = 2026-03-10T17:34:54.193152
MEAN_MOTION    = 14.12415984
ECCENTRICITY   = .0015026
INCLINATION    = 70.7603
RA_OF_ASC_NODE = 173.0311
ARG_OF_PERICENTER = 146.5256
MEAN_ANOMALY   = 213.6817

EPHEMERIS_TYPE = 0
CLASSIFICATION_TYPE = U
NORAD_CAT_ID   = 24298
ELEMENT_SET_NO = 999
REV_AT_EPOCH   = 52179
BSTAR          = .81415E-4
MEAN_MOTION_DOT = .101E-5
MEAN_MOTION_DDOT = 0

CCSDS_OMM_VERS = 2.0
CREATION_DATE  = 
ORIGINATOR     = 

OBJECT_NAME    = ORBVIEW 2 (SEASTAR)
OBJECT_ID      = 1997-037A
CENTER_NAME    = EARTH
REF_FRAME      = TEME
TIME_SYSTEM    = UTC
MEAN_ELEMENT_THEORY = SGP/SGP4

EPOCH          = 2026-03-10T11:07:19.691040
MEAN_MOTION    = 14.35495696
ECCENTRICITY   = .0003083
INCLINATION    = 98.8570
RA_OF_ASC_NODE = 233.7957
ARG_OF_PERICENTER = 70.5363
MEAN_ANOMALY   = 289.6155

EPHEMERIS_TYPE = 0
CLASSIFICATION_TYPE = U
NORAD_CAT_ID   = 24883
ELEMENT_SET_NO = 999
REV_AT_EPOCH   = 50858
BSTAR          = .15111E-3
MEAN_MOTION_DOT = .388E-5
MEAN_MOTION_DDOT = 0

CCSDS_OMM_VERS = 2.0
CREATION_DATE  = 
ORIGINATOR     = 

OBJECT_NAME    = SL-16 R/B
OBJECT_ID      = 1998-043G
CENTER_NAME    = EARTH
REF_FRAME      = TEME
TIME_SYSTEM    = UTC
MEAN_ELEMENT_THEORY = SGP/SGP4

EPOCH          = 2026-03-10T20:30:03.916800
MEAN_MOTION    = 14.26050139
ECCENTRICITY   = .0010162
INCLINATION    = 98.8253
RA_OF_ASC_NODE = 23.2258
ARG_OF_PERICENTER = 17.2309
MEAN_ANOMALY   = 342.9213

EPHEMERIS_TYPE = 0
CLASSIFICATION_TYPE = U
NORAD_CAT_ID   = 25400
ELEMENT_SET_NO = 999
REV_AT_EPOCH   = 43915
BSTAR          = .60287E-4
MEAN_MOTION_DOT = .99E-6
MEAN_MOTION_DDOT = 0

