COSMOS 2242             
1 22626U 93024A   26069.63884983  .00002185  00000+0  18948-3 0  9996
2 22626  82.5156 265.8084 0015123 305.4167  54.5642 14.96553410780535
SL-16 R/B               
1 22803U 93059B   26069.81794661 -.00000131  00000+0 -41224-4 0  9999
2 22803  70.9928   8.7465 0018483 214.9406 145.0506 14.17231475679695
ARIANE 40 R/B           
1 22830U 93061H   26069.81586164  .00000225  00000+0  98313-4 0  9992
2 22830  98.4914 138.6813 0009580 281.3577  78.6531 14.32861570694261
COSMOS 2278             
1 23087U 94023A   26069.72928933  .00000074  00000+0  63043-4 0  9994
2 23087  71.0553 172.9226 0008119  11.0961 349.0339 14.14379218644958
SL-16 R/B               
1 23088U 94023B   26069.42182520 -.00000239  00000+0 -98609-4 0  9997
2 23088  70.9986  69.3494 0005711 284.9255  75.1235 14.15011602646196
SL-16 R/B               
1 23343U 94074B   26069.61540306  .00000584  00000+0  84839-4 0  9999
2 23343  97.7109 100.3955 0005870 206.8763 269.4051 14.79409195687383
SL-16 R/B               
1 23405U 94077B   26069.82715711  .00000025  00000+0  37364-4 0  9999
2 23405  70.9853 350.0963 0003035 210.5769 149.5177 14.15561339616392
ARIANE 40+ R/B          
1 23561U 95021B   26069.79933623  .00000354  00000+0  12668-3 0  9996
2 23561  98.4494 141.2667 0007671 133.4864 337.2868 14.39773382619408
SL-16 R/B               
1 23705U 95058B   26069.69287551  .00000336  00000+0  19609-3 0  9999
2 23705  71.0222 178.1490 0010774 123.8863 236.3286 14.15496011567991
SL-16 R/B               
1 24298U 96051B   26069.73257168  .00000101  00000+0  81415-4 0  9992
2 24298  70.7603 173.0311 0015026 146.5256 213.6817 14.12415984521790
ORBVIEW 2 (SEASTAR)     
1 24883U 97037A   26069.46342235  .00000388  00000+0  15111-3 0  9993
2 24883  98.8570 233.7957 0003083  70.5363 289.6155 14.35495696508582
SL-16 R/B               
1 25400U 98043G   26069.85421200  .00000099  00000+0  60287-4 0  9994
2 25400  98.8253  23.2258 0010162  17.2309 342.9213 14.26050139439159
